{"fetched_at":"2026-03-30T06:02:59Z","count":15439,"tles":[{"name":"STARLINK-11697 [DTC]","line1":"1 63553U 25075F   26087.90892632  .00275357  00000+0  20698-2 0  9998","line2":"2 63553  43.0012  37.7440 0003179 283.2593  76.7920 15.70944833 56276","category":"Starlink"}]}